full_name,a,e,i,om,w,q,ad,per_y,data_arc,condition_code,n_obs_used,n_del_obs_used,n_dop_obs_used,H,diameter,extent,albedo,rot_per,GM,BV,UB,IR,spec_B,spec_T
" 35107 (1991 VH)",1.13729073485329,.1442535436075171,13.91162765947262,139.3746275433547,206.8943051859173,.9732325162387059,1.301348953467874,1.21287335095768,8190,0,1869,3,0,16.7,,,,2.6236,,,,,Sk,
" 35396 (1997 XF11)",1.442464389671326,.4841303343091227,4.097646420169869,213.8220156923652,102.8479844636312,.7441236224707422,2.140805156871909,1.73247051858677,8774,0,983,5,0,16.9,,,,3.259,,,,,Xk,
" 35432 (1998 BG9)",2.508932302271751,.5408690775676855,13.08191377776155,115.44815641,1.288177654306661,1.15192840226226,3.865936202281243,3.97412585808099,5817,0,234,,,19.3,,,,,,,,,S,
" 35670 (1998 SU27)",2.123668482598113,.5946440091023852,7.108885411995224,271.4752288367467,169.5715874686922,.8608417421015923,3.386495223094634,3.09484059492566,1238,0,118,,,19.3,,,,,,,,,Sq,
" 36017 (1999 ND43)",1.522737507072782,.3138511553828392,5.55338869054882,332.1785243380444,51.9492029874261,1.044824581133205,2.000650433012358,1.87908216247632,4698,0,532,,,19.1,,,,11.4,,,,,Sl,
" 36183 (1999 TX16)",1.55123985900791,.332576139118927,38.21664347377212,54.69002928549992,311.1488750369152,1.035334495851671,2.06714522216415,1.9320868085208,5976,0,301,,,16.0,,,,5.6121,,,,,Ld,
" 36284 (2000 DM8)",1.483860245411362,.5539646332903019,46.76033672122362,323.1844713154078,317.9399756673596,.6618541487079993,2.305866342114724,1.80758072556264,10913,0,932,,,14.9,,,,3.844,,,,,Sq,
" 37336 (2001 RM)",2.252770977982563,.4845351985458755,36.63662651684007,223.7510054045189,117.9195424880287,1.161224144887396,3.344317811077731,3.38130047967022,13394,0,676,,,15.6,,,,,,,,,S,
" 40267 (1999 GJ4)",1.338728055381368,.8081671110618827,34.52672505350348,148.278525859865,211.8757144579943,.2568120703663158,2.42064404039642,1.54898335009807,21547,0,1368,,,15.4,,,,4.9567,,,,,Sq,
" 40310 (1999 KU4)",2.195167261522043,.4049372081614669,8.427475987370823,76.45208217557642,223.2050532116378,1.306262359193854,3.084072163850232,3.25244250334905,10127,0,428,,,16.0,,,,,,,,,S:,
" 47035 (1998 WS)",2.657054767475736,.3937340215231489,27.49258993702874,9.015743815223294,94.79578444176039,1.610881908470259,3.703227626481213,4.33120721217073,12992,0,593,,,12.6,,,,3.99,,,,,Sr,
" 48603 (1995 BC2)",1.917630554350537,.4297454292187847,5.028150222752165,328.3933615476171,81.62013198076578,1.093537588688109,2.741723520012964,2.65555691330735,10068,0,395,,,17.6,,,,,,,,,X,
" 53319 (1999 JM8)",2.714962919752078,.6478588176753607,13.85857243647016,133.751944973606,166.6155652520298,.9560502525290515,4.473875586975104,4.4735681320063,8649,0,725,8,10,15.2,7.,,,136.,,,,,X:,
" 53435 (1999 VM40)",2.309226976671312,.485522278207559,15.38778724364684,51.43605472700992,354.2797333381027,1.188045834059503,3.430408119283122,3.50920012187477,14477,0,1259,,,14.6,,,,5.189,,,,,S,
" 54686 (2001 DU8)",1.776842217359749,.3416672364945356,33.20609836576994,161.7560334184421,265.8927237266652,1.169753447267621,2.383930987451878,2.36854422860107,8918,0,346,,,16.4,,,,,,,,,S,
" 54690 (2001 EB)",1.629584816344123,.2564655278930018,35.3600005221469,33.56224687191194,99.57400589685666,1.211652486174007,2.047517146514238,2.08028892251316,21932,0,384,,,17.1,,,,,,,,,Sl,
" 55532 (2001 WG2)",1.794961538611616,.6955619667238829,38.49679920228172,81.51581548726948,132.3140471943931,.5464545606211934,3.043468516602038,2.40486622555269,21980,0,438,,,16.1,,,,,,,,,Sk,
" 65679 (1989 UQ)",.9151013117255621,.2647131373617823,1.299360778716243,178.2419535147096,14.89361819808221,.6728619724948062,1.157340650956318,0.875410938784163,8043,0,408,,,19.4,,,,7.733,,,,,B,
" 65706 (1992 NA)",2.39527064821047,.5572931490986923,9.70765420893032,349.3832134223846,8.099015565367758,1.060402725725591,3.730138570695348,3.70714942192172,7168,0,251,,,16.5,,,,6.992,,,,,C,
" 65803 Didymos (1996 GT)",1.644364375184371,.3836351215311177,3.407825253681584,73.23959144755649,319.2485973081494,1.013528448269075,2.275200302099668,2.10865384056714,6236,0,796,6,0,18.0,,,,2.2593,,,,,Xk,
" 66391 (1999 KW4)",.642291858995768,.6884602376035379,38.88717368231676,244.9231238014099,192.6154466832909,.2000994531407235,1.084484264850812,0.514762413413996,5459,0,1772,36,0,16.5,1.317,"1.532 x 1.495 x 1.347",,2.7645,,,,,S:,
" 66959 (1999 XO35)",2.534877284961534,.5688867083010126,20.56750895562104,82.27990448571525,293.0572539647952,1.092819290372759,3.976935279550308,4.03592987622635,4434,0,568,,,16.6,,,,,,,,,Sq,
" 85490 (1997 SE5)",3.710828055034236,.6691611228908162,2.604167297257971,287.4470368129155,56.88377222756883,1.227686186872783,6.193969923195688,7.14849222698044,11657,0,685,,,14.7,,,,9.0583,,,,,T,
" 85774 (1998 UT18)",1.404472914076671,.3293362764112016,13.59157985179504,64.7394134104993,49.93545948331551,.9419290342342708,1.867016793919071,1.66447874745142,9105,0,524,4,4,19.2,,,,34.,,,,,C,
" 85818 (1998 XM4)",1.656677338847364,.4166250843576934,62.71046046474618,235.6700820424105,301.2592411032098,.9664640027966019,2.346890674898126,2.13238245151442,7540,0,602,,,15.5,,,,,,,,,S,
" 85938 (1999 DJ4)",1.853094926321227,.4833045179761563,9.144496991775023,19.92195062313799,197.6112285456073,.9574857761914858,2.748704076450969,2.52263665970677,5445,0,593,1,0,18.6,,,,2.5141,,,,,Sq,
" 85953 (1999 FK21)",.7387250547739548,.7030931971640285,12.60558976632459,180.5051691806809,172.3633607524157,.2193324941877628,1.258117615360147,0.634939646147688,15712,0,749,,,18.0,0.59,,0.32,28.1,,,,,S,
" 85989 (1999 JD6)",.8826353340167342,.6328538327026101,17.05661281112031,130.2385107023288,309.1942565933426,.3240561800054955,1.441214488027973,0.829239853489196,8473,0,1191,0,1,17.1,,,,7.68,,,,,K,
" 85990 (1999 JV6)",1.007663799992941,.3113349219836843,5.321134084218095,124.5229778498159,235.2789474048986,.6939428694363561,1.321384730549526,1.01153680124173,5405,0,655,,,20.0,,,,,,,,,Xk,
" 86039 (1999 NC43)",1.759544401862722,.5792610996049923,7.123581762114018,311.8164439116161,120.5698046858089,.740308776835913,2.77878002688953,2.33404136348533,5417,0,801,,,15.9,2.22,,0.14,34.49,,,,,Q,
" 86326 (1999 WK13)",1.844352205061051,.3627746361229229,34.30175717732698,78.50805959452506,312.4879616466731,1.175268004987518,2.513436405134585,2.50480540182505,11485,0,358,,,17.3,,,,,,,,,S,
" 86450 (2000 CK33)",.9680992097609568,.4148032950173667,18.10796493644959,124.8903799157626,215.5650012309025,.566528467648403,1.36966995187351,0.952550481064888,1930,1,451,,,18.2,,,,6.51,,,,,Xk,
" 86819 (2000 GK137)",1.994897710797831,.506736088221107,10.05913424009628,164.9415019731798,150.2065400081265,.9840110484268966,3.005784373168764,2.8176636559846,7310,0,555,,,17.4,,,,3.025,,,,,Sq,
" 86829 (2000 GR146)",1.462607346545424,.5749869235044538,14.38466201430499,78.54357073629249,31.31545821248272,.621627248060258,2.30358744503059,1.76888593218679,14331,0,652,,,15.9,,,,3.0996,,,,,S:,
" 89355 (2001 VS78)",1.786962836058361,.3080768565981994,22.66657096905591,103.1305416163548,84.88620365428267,1.236440942667698,2.337484729449025,2.38880930988404,13072,0,1084,,,15.5,,,,40.553,,,,,S,
" 96177 (1984 BC)",3.495786881488098,.5333859746850135,21.35575856683435,129.4606074323615,43.66077732102652,1.631183188414485,5.360390574561711,6.5362043953256,9594,0,267,,,16.0,3.4,,,,,,,,,D
" 96590 (1998 XB)",.9079147328789033,.3512476808692167,13.59744532200101,75.77523997950558,202.6951848717448,.5890117885281942,1.226817677229612,0.865118895061835,7613,0,1609,2,2,16.2,,,,520.,,,,,S:,
" 98943 (2001 CC21)",1.032477574821225,.2194119083222352,4.808773739878504,75.58908848030489,179.3320934576847,.805939699829787,1.259015449812664,1.04912960825237,8854,0,628,,,18.5,,,,5.017,,,,,L,
" 99907 (1989 VA)",.7284489495783539,.5946697257008509,28.79782885744063,225.6066098643966,2.841170888538727,.2952624125455213,1.161635486611187,0.621737244861433,8453,0,544,,,17.9,1.4,,,2.514,,,,,Sq,
" 99913 (1997 CZ5)",2.293957933219358,.3972123925244707,24.90223383714642,288.0336975625967,169.191724870948,1.382769414214807,3.205146452223909,3.47445248248203,7832,0,728,,,13.4,,,,2.833,,,,,S,
" 99942 Apophis (2004 MN4)",.9222817619292676,.1910740380932232,3.331282898266682,204.4572873665713,126.3951063520218,.7460576614177097,1.098505862440825,0.885734646907567,3635,0,4082,13,7,19.7,0.325,,0.23,30.4,,,,,Sq,
"100480 (1996 UK)",2.685234060971566,.4631986389779592,10.73576446178234,210.141983206712,135.0117702331966,1.441437298592278,3.929030823350854,4.40029125464635,6129,0,251,,,16.0,,,,,,,,,Sq,
"100756 (1998 FM5)",2.268601544602174,.5520201444637134,11.52541142688026,176.8642664198009,311.6291140781409,1.016287792220278,3.520915296984069,3.41700439523055,9218,0,546,,,16.1,,,,6.35,,,,,S,
"100926 (1998 MQ)",1.782704909700607,.4077730183213694,24.22830769067994,221.1565616142143,138.6862033681136,1.055765947895666,2.509643871505548,2.38027641331862,12469,0,647,1,2,16.7,,,,2.328,,,,,S,
"129493 (1995 BM2)",2.31565760391339,.3069277142997324,20.68339686695804,248.0415851128395,268.0070255520981,1.604918108443458,3.026397099383322,3.52386870660908,6728,0,209,,,15.3,,,,,,,,,Sq,
"136564 (1977 VA)",1.865330401029456,.3943757027098314,2.981379063776517,224.5385813436448,172.5180060167924,1.129689413337453,2.60097138872146,2.54766226689628,12166,0,264,,,19.1,0.4,,,,,.705,.205,,,XC
"136745 (1995 WL8)",2.36677903590918,.4833258937000698,17.77419243979299,248.0458258923609,131.60801087589,1.222853443187786,3.510704628630574,3.64120200295656,6448,0,81,,,18.0,,,,,,,,,Sq,
"136793 (1997 AQ18)",1.146994270652086,.4653046696569186,17.37849991340798,296.3003062336527,36.97141480193356,.6132924804479388,1.680696060856233,1.22842904146238,6273,0,268,,,18.4,,,,,,,,,C,
"136795 (1997 BQ)",1.745584873987517,.4782830838680435,11.00431640374425,50.22284374433897,147.4029066629737,.9107011573033573,2.580468590671676,2.30632048897467,5953,0,223,,,18.1,,,,,,,,,S,
